[{"OBJECT_NAME":"SIT-2086","OBJECT_ID":"2024-199AF","EPOCH":"2026-03-09T21:58:57.858816","MEAN_MOTION":15.47661375,"ECCENTRICITY":0.00059701,"INCLINATION":97.3118,"RA_OF_ASC_NODE":303.9174,"ARG_OF_PERICENTER":271.0533,"MEAN_ANOMALY":89.0033,"EPHEMERIS_TYPE":0,"CLASSIFICATION_TYPE":"U","NORAD_CAT_ID":61764,"ELEMENT_SET_NO":999,"REV_AT_EPOCH":11905,"BSTAR":0.00051547248,"MEAN_MOTION_DOT":0.00026602,"MEAN_MOTION_DDOT":0},{"OBJECT_NAME":"COSMOS 1766","OBJECT_ID":"1986-055A","EPOCH":"2026-03-09T14:20:00.984768","MEAN_MOTION":15.50643767,"ECCENTRICITY":0.0007943,"INCLINATION":82.4867,"RA_OF_ASC_NODE":108.9062,"ARG_OF_PERICENTER":164.4353,"MEAN_ANOMALY":195.7144,"EPHEMERIS_TYPE":0,"CLASSIFICATION_TYPE":"U","NORAD_CAT_ID":16881,"ELEMENT_SET_NO":999,"REV_AT_EPOCH":14359,"BSTAR":0.00043225,"MEAN_MOTION_DOT":0.00024879,"MEAN_MOTION_DDOT":0}]
